{"fetched_at":"2026-07-09T18:17:05.753Z","source":"https://celestrak.org/NORAD/elements/gp.php?NAME=HAWK&FORMAT=JSON","constellation":"hawkeye-360","records":[{"OBJECT_NAME":"HAWK-7B","OBJECT_ID":"2023-054R","EPOCH":"2026-07-08T15:54:50.769504","CLASSIFICATION_TYPE":"U","MEAN_MOTION":15.27590369,"ECCENTRICITY":0.0002012,"INCLINATION":97.2701,"RA_OF_ASC_NODE":74.7258,"ARG_OF_PERICENTER":28.456,"MEAN_ANOMALY":331.6789,"EPHEMERIS_TYPE":0,"NORAD_CAT_ID":56193,"ELEMENT_SET_NO":999,"REV_AT_EPOCH":18030,"BSTAR":0.00014408905,"MEAN_MOTION_DOT":0.00003815,"MEAN_MOTION_DDOT":0},{"OBJECT_NAME":"HAWK-7C","OBJECT_ID":"2023-054Y","EPOCH":"2026-07-08T15:54:41.230080","CLASSIFICATION_TYPE":"U","MEAN_MOTION":15.27588842,"ECCENTRICITY":0.00016687,"INCLINATION":97.2678,"RA_OF_ASC_NODE":75.4879,"ARG_OF_PERICENTER":14.6785,"MEAN_ANOMALY":345.4503,"EPHEMERIS_TYPE":0,"NORAD_CAT_ID":56200,"ELEMENT_SET_NO":999,"REV_AT_EPOCH":18030,"BSTAR":0.00014309073,"MEAN_MOTION_DOT":0.00003788,"MEAN_MOTION_DDOT":0},{"OBJECT_NAME":"HAWK-8A","OBJECT_ID":"2024-066B","EPOCH":"2026-07-08T23:14:02.004864","CLASSIFICATION_TYPE":"U","MEAN_MOTION":14.99274858,"ECCENTRICITY":0.00024912,"INCLINATION":45.5944,"RA_OF_ASC_NODE":164.018,"ARG_OF_PERICENTER":192.9867,"MEAN_ANOMALY":167.0951,"EPHEMERIS_TYPE":0,"NORAD_CAT_ID":59443,"ELEMENT_SET_NO":999,"REV_AT_EPOCH":12310,"BSTAR":0.000088649328,"MEAN_MOTION_DOT":0.00000867,"MEAN_MOTION_DDOT":0},{"OBJECT_NAME":"HAWK-8B","OBJECT_ID":"2024-066D","EPOCH":"2026-07-08T23:14:41.406720","CLASSIFICATION_TYPE":"U","MEAN_MOTION":14.99277013,"ECCENTRICITY":0.00026415,"INCLINATION":45.6159,"RA_OF_ASC_NODE":165.9826,"ARG_OF_PERICENTER":194.1462,"MEAN_ANOMALY":165.9346,"EPHEMERIS_TYPE":0,"NORAD_CAT_ID":59445,"ELEMENT_SET_NO":999,"REV_AT_EPOCH":12309,"BSTAR":0.00036622845,"MEAN_MOTION_DOT":0.00004306,"MEAN_MOTION_DDOT":0},{"OBJECT_NAME":"HAWK-9A","OBJECT_ID":"2024-066E","EPOCH":"2026-07-08T22:11:11.583168","CLASSIFICATION_TYPE":"U","MEAN_MOTION":14.99202637,"ECCENTRICITY":0.00021833,"INCLINATION":45.6086,"RA_OF_ASC_NODE":164.8761,"ARG_OF_PERICENTER":175.5158,"MEAN_ANOMALY":184.5743,"EPHEMERIS_TYPE":0,"NORAD_CAT_ID":59446,"ELEMENT_SET_NO":999,"REV_AT_EPOCH":12309,"BSTAR":0.000099670559,"MEAN_MOTION_DOT":0.00001001,"MEAN_MOTION_DDOT":0},{"OBJECT_NAME":"HAWK-9C","OBJECT_ID":"2024-066G","EPOCH":"2026-07-08T22:11:35.142720","CLASSIFICATION_TYPE":"U","MEAN_MOTION":14.99205715,"ECCENTRICITY":0.00020126,"INCLINATION":45.6047,"RA_OF_ASC_NODE":163.9756,"ARG_OF_PERICENTER":156.5465,"MEAN_ANOMALY":203.5508,"EPHEMERIS_TYPE":0,"NORAD_CAT_ID":59448,"ELEMENT_SET_NO":999,"REV_AT_EPOCH":12309,"BSTAR":0.00010221652,"MEAN_MOTION_DOT":0.00001033,"MEAN_MOTION_DDOT":0},{"OBJECT_NAME":"HAWK-8C","OBJECT_ID":"2024-066H","EPOCH":"2026-07-08T23:13:57.188064","CLASSIFICATION_TYPE":"U","MEAN_MOTION":14.99279483,"ECCENTRICITY":0.00023508,"INCLINATION":45.6052,"RA_OF_ASC_NODE":165.0095,"ARG_OF_PERICENTER":205.3748,"MEAN_ANOMALY":154.7018,"EPHEMERIS_TYPE":0,"NORAD_CAT_ID":59449,"ELEMENT_SET_NO":999,"REV_AT_EPOCH":12309,"BSTAR":0.00011193236,"MEAN_MOTION_DOT":0.00001155,"MEAN_MOTION_DDOT":0},{"OBJECT_NAME":"HAWK-9B","OBJECT_ID":"2024-066J","EPOCH":"2026-07-08T22:11:36.952800","CLASSIFICATION_TYPE":"U","MEAN_MOTION":14.99203842,"ECCENTRICITY":0.00022134,"INCLINATION":45.6128,"RA_OF_ASC_NODE":165.8098,"ARG_OF_PERICENTER":148.494,"MEAN_ANOMALY":211.6074,"EPHEMERIS_TYPE":0,"NORAD_CAT_ID":59450,"ELEMENT_SET_NO":999,"REV_AT_EPOCH":12309,"BSTAR":0.00010301927,"MEAN_MOTION_DOT":0.00001043,"MEAN_MOTION_DDOT":0},{"OBJECT_NAME":"HAWK-10A","OBJECT_ID":"2024-149CA","EPOCH":"2026-07-08T21:35:41.998560","CLASSIFICATION_TYPE":"U","MEAN_MOTION":14.96582101,"ECCENTRICITY":0.00036849,"INCLINATION":97.6892,"RA_OF_ASC_NODE":265.4382,"ARG_OF_PERICENTER":27.8367,"MEAN_ANOMALY":332.3051,"EPHEMERIS_TYPE":0,"NORAD_CAT_ID":60540,"ELEMENT_SET_NO":999,"REV_AT_EPOCH":10323,"BSTAR":0.00013531937,"MEAN_MOTION_DOT":0.00001483,"MEAN_MOTION_DDOT":0},{"OBJECT_NAME":"HAWK-10B","OBJECT_ID":"2024-149CF","EPOCH":"2026-07-08T21:35:29.914656","CLASSIFICATION_TYPE":"U","MEAN_MOTION":14.96581782,"ECCENTRICITY":0.00060414,"INCLINATION":97.6812,"RA_OF_ASC_NODE":264.7712,"ARG_OF_PERICENTER":36.6514,"MEAN_ANOMALY":323.512,"EPHEMERIS_TYPE":0,"NORAD_CAT_ID":60545,"ELEMENT_SET_NO":999,"REV_AT_EPOCH":10323,"BSTAR":0.00012863514,"MEAN_MOTION_DOT":0.00001407,"MEAN_MOTION_DDOT":0},{"OBJECT_NAME":"HAWK-10C","OBJECT_ID":"2024-149DM","EPOCH":"2026-07-08T18:23:24.911520","CLASSIFICATION_TYPE":"U","MEAN_MOTION":14.96581492,"ECCENTRICITY":0.0003244,"INCLINATION":97.6731,"RA_OF_ASC_NODE":263.9571,"ARG_OF_PERICENTER":17.9304,"MEAN_ANOMALY":342.2031,"EPHEMERIS_TYPE":0,"NORAD_CAT_ID":60575,"ELEMENT_SET_NO":999,"REV_AT_EPOCH":10321,"BSTAR":0.00012845844,"MEAN_MOTION_DOT":0.00001405,"MEAN_MOTION_DDOT":0},{"OBJECT_NAME":"HAWK-11B","OBJECT_ID":"2024-247C","EPOCH":"2026-07-08T15:27:24.703488","CLASSIFICATION_TYPE":"U","MEAN_MOTION":15.30606289,"ECCENTRICITY":0.00039641,"INCLINATION":45.0132,"RA_OF_ASC_NODE":172.1,"ARG_OF_PERICENTER":344.9381,"MEAN_ANOMALY":15.1385,"EPHEMERIS_TYPE":0,"NORAD_CAT_ID":62379,"ELEMENT_SET_NO":999,"REV_AT_EPOCH":8629,"BSTAR":0.00016201536,"MEAN_MOTION_DOT":0.00004582,"MEAN_MOTION_DDOT":0},{"OBJECT_NAME":"HAWK-11C","OBJECT_ID":"2024-247E","EPOCH":"2026-07-08T15:26:44.756448","CLASSIFICATION_TYPE":"U","MEAN_MOTION":15.30603739,"ECCENTRICITY":0.00048479,"INCLINATION":45.0015,"RA_OF_ASC_NODE":171.4406,"ARG_OF_PERICENTER":334.7589,"MEAN_ANOMALY":25.3057,"EPHEMERIS_TYPE":0,"NORAD_CAT_ID":62381,"ELEMENT_SET_NO":999,"REV_AT_EPOCH":8629,"BSTAR":0.00015619834,"MEAN_MOTION_DOT":0.00004407,"MEAN_MOTION_DDOT":0},{"OBJECT_NAME":"HAWK-11A","OBJECT_ID":"2024-247F","EPOCH":"2026-07-08T15:26:51.889632","CLASSIFICATION_TYPE":"U","MEAN_MOTION":15.30604743,"ECCENTRICITY":0.0004393,"INCLINATION":44.9918,"RA_OF_ASC_NODE":170.7749,"ARG_OF_PERICENTER":334.4134,"MEAN_ANOMALY":25.6532,"EPHEMERIS_TYPE":0,"NORAD_CAT_ID":62382,"ELEMENT_SET_NO":999,"REV_AT_EPOCH":8629,"BSTAR":0.00015675238,"MEAN_MOTION_DOT":0.00004424,"MEAN_MOTION_DDOT":0},{"OBJECT_NAME":"HAWK-12C","OBJECT_ID":"2025-138A","EPOCH":"2026-07-08T23:44:11.782464","CLASSIFICATION_TYPE":"U","MEAN_MOTION":15.18374063,"ECCENTRICITY":0.00156817,"INCLINATION":97.435,"RA_OF_ASC_NODE":192.0643,"ARG_OF_PERICENTER":70.7079,"MEAN_ANOMALY":289.5849,"EPHEMERIS_TYPE":0,"NORAD_CAT_ID":64621,"ELEMENT_SET_NO":999,"REV_AT_EPOCH":5717,"BSTAR":0.00012206019,"MEAN_MOTION_DOT":0.00002448,"MEAN_MOTION_DDOT":0},{"OBJECT_NAME":"HAWK-12B","OBJECT_ID":"2025-138B","EPOCH":"2026-07-08T22:09:32.810688","CLASSIFICATION_TYPE":"U","MEAN_MOTION":15.1837309,"ECCENTRICITY":0.001459,"INCLINATION":97.4474,"RA_OF_ASC_NODE":192.6829,"ARG_OF_PERICENTER":66.8008,"MEAN_ANOMALY":293.4761,"EPHEMERIS_TYPE":0,"NORAD_CAT_ID":64622,"ELEMENT_SET_NO":999,"REV_AT_EPOCH":5716,"BSTAR":0.0001216762,"MEAN_MOTION_DOT":0.00002438,"MEAN_MOTION_DDOT":0}]}
