HAWK-7B                 
1 56193U 23054R   26189.66308761  .00003815  00000+0  14409-3 0  9998
2 56193  97.2701  74.7258 0002012  28.4560 331.6789 15.27590369180301
HAWK-7C                 
1 56200U 23054Y   26189.66297720  .00003788  00000+0  14309-3 0  9997
2 56200  97.2678  75.4879 0001668  14.6785 345.4503 15.27588842180302
HAWK-8A                 
1 59443U 24066B   26189.96807876  .00000867  00000+0  88649-4 0  9999
2 59443  45.5944 164.0180 0002491 192.9867 167.0951 14.99274858123109
HAWK-8B                 
1 59445U 24066D   26189.96853480  .00004306  00000+0  36623-3 0  9999
2 59445  45.6159 165.9826 0002641 194.1462 165.9346 14.99277013123098
HAWK-9A                 
1 59446U 24066E   26189.92443962  .00001001  00000+0  99671-4 0  9998
2 59446  45.6086 164.8761 0002183 175.5158 184.5743 14.99202637123098
HAWK-9C                 
1 59448U 24066G   26189.92471230  .00001033  00000+0  10222-3 0  9998
2 59448  45.6047 163.9756 0002012 156.5465 203.5508 14.99205715123093
HAWK-8C                 
1 59449U 24066H   26189.96802301  .00001155  00000+0  11193-3 0  9993
2 59449  45.6052 165.0095 0002350 205.3748 154.7018 14.99279483123097
HAWK-9B                 
1 59450U 24066J   26189.92473325  .00001043  00000+0  10302-3 0  9998
2 59450  45.6128 165.8098 0002213 148.4940 211.6074 14.99203842123094
HAWK-10A                
1 60540U 24149CA  26189.89979165  .00001483  00000+0  13532-3 0  9997
2 60540  97.6892 265.4382 0003684  27.8367 332.3051 14.96582101103235
HAWK-10B                
1 60545U 24149CF  26189.89965179  .00001407  00000+0  12864-3 0  9995
2 60545  97.6812 264.7712 0006041  36.6514 323.5120 14.96581782103236
HAWK-10C                
1 60575U 24149DM  26189.76626055  .00001405  00000+0  12846-3 0  9999
2 60575  97.6731 263.9571 0003244  17.9304 342.2031 14.96581492103219
HAWK-11B                
1 62379U 24247C   26189.64403592  .00004582  00000+0  16202-3 0  9997
2 62379  45.0132 172.1000 0003964 344.9381  15.1385 15.30606289 86297
HAWK-11C                
1 62381U 24247E   26189.64357357  .00004407  00000+0  15620-3 0  9996
2 62381  45.0015 171.4406 0004847 334.7589  25.3057 15.30603739 86296
HAWK-11A                
1 62382U 24247F   26189.64365613  .00004424  00000+0  15675-3 0  9990
2 62382  44.9918 170.7749 0004393 334.4134  25.6532 15.30604743 86295
HAWK-12C                
1 64621U 25138A   26189.98902526  .00002448  00000+0  12206-3 0  9996
2 64621  97.4350 192.0643 0015681  70.7079 289.5849 15.18374063 57178
HAWK-12B                
1 64622U 25138B   26189.92329642  .00002438  00000+0  12168-3 0  9999
2 64622  97.4474 192.6829 0014590  66.8008 293.4761 15.18373090 57169
